QIANFAN-81              
1 63167U 25046J   25287.90467359  .00000159  00000+0  22719-3 0  9995
2 63167  88.9795 325.9627 0012619 293.3968  66.5856 13.50986279 39541
QIANFAN-82              
1 63168U 25046K   25288.01188964  .00000148  00000+0  21066-3 0  9993
2 63168  88.9796 325.9952 0010886 302.9441  57.0662 13.50968819 39541
QIANFAN-83              
1 63169U 25046L   25287.92501031  .00000165  00000+0  19799-3 0  9996
2 63169  88.9796 325.8960 0011967 289.3044  70.6819 13.61963098 39594
QIANFAN-84              
1 63170U 25046M   25287.89211553  .00000110  00000+0  15218-3 0  9993
2 63170  88.9796 326.1406 0013782 298.2439  61.7321 13.50986214 39456
QIANFAN-85              
1 63171U 25046N   25287.96251976  .00000159  00000+0  22793-3 0  9994
2 63171  88.9794 326.0053 0011206 301.6665  58.3392 13.50971673 39533
QIANFAN-86              
1 63172U 25046P   25287.97076683  .00000127  00000+0  17863-3 0  9993
2 63172  88.9797 325.8651 0009160 307.7665  52.2656 13.50968571 39619
QIANFAN-87              
1 63173U 25046Q   25282.68330257  .00000145  00000+0  20656-3 0  9991
2 63173  88.9804 326.5243 0010016 319.1660  40.8739 13.50979787 38837
QIANFAN-88              
1 63174U 25046R   25283.51451471  .00000149  00000+0  21299-3 0  9995
2 63174  88.9800 326.3915 0010557 325.4993  34.5472 13.50973338 38972
